48787,ONEWEB-0210,2021,109.46,148.0,+,87.91,Active,1,LEO,Russia,UK,Commercial,Communications,Soyuz,1 48787U 21045W   24331.07988882 -.00000035  00000+0 -12813-3 0  9996,2 48787  87.9084  12.2749 0002229  75.9963 284.1415 13.15547311170757,13.15547311,0.0002229,LEO
48788,ONEWEB-0214,2021,109.46,148.0,+,87.91,Active,1,LEO,Russia,UK,Commercial,Communications,Soyuz,1 48788U 21045X   24330.17670645  .00000098  00000+0  22647-3 0  9995,2 48788  87.9085  12.4430 0002240  85.4894 274.6492 13.15547000169471,13.15547,0.000224,LEO
48789,ONEWEB-0221,2021,109.46,148.0,+,87.91,Active,1,LEO,Russia,UK,Commercial,Communications,Soyuz,1 48789U 21045Y   24330.18303178  .00000193  00000+0  47784-3 0  9996,2 48789  87.9088  12.4641 0001635  89.5590 270.5728 13.15548772169568,13.15548772,0.0001635,LEO
48790,ONEWEB-0213,2021,109.46,148.0,+,87.91,Active,1,LEO,Russia,UK,Commercial,Communications,Soyuz,1 48790U 21045Z   24330.62829344 -.00000055  00000+0 -17988-3 0  9997,2 48790  87.9089  12.3867 0001823  83.0776 277.0562 13.15546534170816,13.15546534,0.0001823,LEO
48791,ONEWEB-0212,2021,109.46,148.0,+,87.91,Active,1,LEO,Russia,UK,Commercial,Communications,Soyuz,1 48791U 21045AA  24330.60531141 -.00000066  00000+0 -21011-3 0  9995,2 48791  87.9091  12.3770 0001826 100.9284 259.2052 13.15546054169674,13.15546054,0.0001826,LEO
48792,ONEWEB-0227,2021,109.46,148.0,+,87.91,Active,1,LEO,Russia,UK,Commercial,Communications,Soyuz,1 48792U 21045AB  24330.60451872 -.00000031  00000+0 -11759-3 0  9998,2 48792  87.9088  12.3913 0001746  88.9407 271.1923 13.15546010169620,13.1554601,0.0001746,LEO
48793,ONEWEB-0226,2021,109.46,148.0,+,87.91,Active,1,LEO,Russia,UK,Commercial,Communications,Soyuz,1 48793U 21045AC  24330.67423840 -.00005210  00000+0 -13876-1 0  9994,2 48793  87.9090  12.3828 0002115  79.2411 280.8957 13.15575329170720,13.15575329,0.0002115,LEO
48794,ONEWEB-0224,2021,109.46,148.0,+,87.91,Active,1,LEO,Russia,UK,Commercial,Communications,Soyuz,1 48794U 21045AD  24330.18146075  .00000184  00000+0  45532-3 0  9992,2 48794  87.9089  12.5086 0000770  88.6338 271.4880 13.15549479169461,13.15549479,7.7e-05,LEO
